{"type": "FeatureCollection", "features": [ {"type": "Feature", "properties": {"norad_id": 40315, "name": "COSMOS 2501 (702K)", "group": "gnss", "lat": -19.19993007750034, "lon": -173.23307515321812, "alt_km": 19168.53182466676, "timestamp": "2025-12-15T19:00:45.598592+00:00", "meta": {"OBJECT_NAME": "COSMOS 2501 (702K)", "OBJECT_ID": "2014-075A", "EPOCH": "2025-12-14T09:54:07.365600", "MEAN_MOTION": 2.13101427, "ECCENTRICITY": 0.00201134, "INCLINATION": 63.6139, "RA_OF_ASC_NODE": 196.7672, "ARG_OF_PERICENTER": 204.2903, "MEAN_ANOMALY": 155.6894, "EPHEMERIS_TYPE": 0, "CLASSIFICATION_TYPE": "U", "NORAD_CAT_ID": 40315, "ELEMENT_SET_NO": 999, "REV_AT_EPOCH": 8591, "BSTAR": 0, "MEAN_MOTION_DOT": 9.7e-07, "MEAN_MOTION_DDOT": 0}, "tle": {"line1": "1 40315U 14075A   25348.41258525  .00000097  00000+0  00000+0 0  9998", "line2": "2 40315  63.6139 196.7672 0020113 204.2903 155.6894  2.13101427 85910"}}, "geometry": {"type": "Point", "coordinates": [-173.23307515321812, -19.19993007750034]}}, {"type": "Feature", "properties": {"norad_id": 40534, "name": "GPS BIIF-9  (PRN 26)", "group": "gnss", "lat": 20.06933883181869, "lon": 15.908190240186952, "alt_km": 20302.41519270925, "timestamp": "2025-12-15T19:00:45.598606+00:00", "meta": {"OBJECT_NAME": "GPS BIIF-9  (PRN 26)", "OBJECT_ID": "2015-013A", "EPOCH": "2025-12-14T14:00:18.636192", "MEAN_MOTION": 2.00562523, "ECCENTRICITY": 0.01071292, "INCLINATION": 53.1975, "RA_OF_ASC_NODE": 211.8138, "ARG_OF_PERICENTER": 38.5211, "MEAN_ANOMALY": 322.322, "EPHEMERIS_TYPE": 0, "CLASSIFICATION_TYPE": "U", "NORAD_CAT_ID": 40534, "ELEMENT_SET_NO": 999, "REV_AT_EPOCH": 7812, "BSTAR": 0, "MEAN_MOTION_DOT": 6.1e-07, "MEAN_MOTION_DDOT": 0}, "tle": {"line1": "1 40534U 15013A   25348.58354903  .00000061  00000+0  00000+0 0  9990", "line2": "2 40534  53.1975 211.8138 0107129  38.5211 322.3220  2.00562523 78129"}}, "geometry": {"type": "Point", "coordinates": [15.908190240186952, 20.06933883181869]}}, {"type": "Feature", "properties": {"norad_id": 40544, "name": "GSAT0203 (GALILEO 7)", "group": "gnss", "lat": 51.590467060628626, "lon": 111.051882355976, "alt_km": 23234.253256512446, "timestamp": "2025-12-15T19:00:45.598617+00:00", "meta": {"OBJECT_NAME": "GSAT0203 (GALILEO 7)", "OBJECT_ID": "2015-017A", "EPOCH": "2025-12-14T10:31:47.473824", "MEAN_MOTION": 1.70475994, "ECCENTRICITY": 0.00064885, "INCLINATION": 56.8458, "RA_OF_ASC_NODE": 346.6335, "ARG_OF_PERICENTER": 272.6107, "MEAN_ANOMALY": 87.3336, "EPHEMERIS_TYPE": 0, "CLASSIFICATION_TYPE": "U", "NORAD_CAT_ID": 40544, "ELEMENT_SET_NO": 999, "REV_AT_EPOCH": 6605, "BSTAR": 0, "MEAN_MOTION_DOT": -8.5e-07, "MEAN_MOTION_DDOT": 0}, "tle": {"line1": "1 40544U 15017A   25348.43874391 -.00000085  00000+0  00000+0 0  9994", "line2": "2 40544  56.8458 346.6335 0006488 272.6107  87.3336  1.70475994 66059"}}, "geometry": {"type": "Point", "coordinates": [111.051882355976, 51.590467060628626]}}, {"type": "Feature", "properties": {"norad_id": 40545, "name": "GSAT0204 (GALILEO 8)", "group": "gnss", "lat": -37.135738450448535, "lon": -43.05266027673587, "alt_km": 23214.517587502905, "timestamp": "2025-12-15T19:00:45.598629+00:00", "meta": {"OBJECT_NAME": "GSAT0204 (GALILEO 8)", "OBJECT_ID": "2015-017B", "EPOCH": "2025-12-14T02:34:59.251872", "MEAN_MOTION": 1.70475779, "ECCENTRICITY": 0.00061918, "INCLINATION": 56.8531, "RA_OF_ASC_NODE": 346.6603, "ARG_OF_PERICENTER": 264.6234, "MEAN_ANOMALY": 95.3246, "EPHEMERIS_TYPE": 0, "CLASSIFICATION_TYPE": "U", "NORAD_CAT_ID": 40545, "ELEMENT_SET_NO": 999, "REV_AT_EPOCH": 2909, "BSTAR": 0, "MEAN_MOTION_DOT": -8.6e-07, "MEAN_MOTION_DDOT": 0}, "tle": {"line1": "1 40545U 15017B   25348.10763023 -.00000086  00000+0  00000+0 0  9999", "line2": "2 40545  56.8531 346.6603 0006191 264.6234  95.3246  1.70475779 29096"}}, "geometry": {"type": "Point", "coordinates": [-43.05266027673587, -37.135738450448535]}}, {"type": "Feature", "properties": {"norad_id": 40549, "name": "BEIDOU-3S IGSO-1S (C31)", "group": "gnss", "lat": 10.386545092578134, "lon": 108.64610156661173, "alt_km": 35643.39737850557, "timestamp": "2025-12-15T19:00:45.598640+00:00", "meta": {"OBJECT_NAME": "BEIDOU-3S IGSO-1S (C31)", "OBJECT_ID": "2015-019A", "EPOCH": "2025-12-11T20:45:03.352032", "MEAN_MOTION": 1.00292963, "ECCENTRICITY": 0.0036964, "INCLINATION": 49.5542, "RA_OF_ASC_NODE": 297.7211, "ARG_OF_PERICENTER": 195.3449, "MEAN_ANOMALY": 352.9961, "EPHEMERIS_TYPE": 0, "CLASSIFICATION_TYPE": "U", "NORAD_CAT_ID": 40549, "ELEMENT_SET_NO": 999, "REV_AT_EPOCH": 3919, "BSTAR": 0, "MEAN_MOTION_DOT": -1.91e-06, "MEAN_MOTION_DDOT": 0}, "tle": {"line1": "1 40549U 15019A   25345.86462213 -.00000191  00000+0  00000+0 0  9999", "line2": "2 40549  49.5542 297.7211 0036964 195.3449 352.9961  1.00292963 39194"}}, "geometry": {"type": "Point", "coordinates": [108.64610156661173, 10.386545092578134]}}, {"type": "Feature", "properties": {"norad_id": 40730, "name": "GPS BIIF-10 (PRN 08)", "group": "gnss", "lat": 29.239717583017658, "lon": -61.507918447322716, "alt_km": 19888.17285528437, "timestamp": "2025-12-15T19:00:45.598652+00:00", "meta": {"OBJECT_NAME": "GPS BIIF-10 (PRN 08)", "OBJECT_ID": "2015-033A", "EPOCH": "2025-12-14T17:52:33.196224", "MEAN_MOTION": 2.00565563, "ECCENTRICITY": 0.01110844, "INCLINATION": 54.1289, "RA_OF_ASC_NODE": 274.6903, "ARG_OF_PERICENTER": 26.8533, "MEAN_ANOMALY": 333.7312, "EPHEMERIS_TYPE": 0, "CLASSIFICATION_TYPE": "U", "NORAD_CAT_ID": 40730, "ELEMENT_SET_NO": 999, "REV_AT_EPOCH": 7629, "BSTAR": 0, "MEAN_MOTION_DOT": -6.9e-07, "MEAN_MOTION_DDOT": 0}, "tle": {"line1": "1 40730U 15033A   25348.74482866 -.00000069  00000+0  00000+0 0  9997", "line2": "2 40730  54.1289 274.6903 0111084  26.8533 333.7312  2.00565563 76296"}}, "geometry": {"type": "Point", "coordinates": [-61.507918447322716, 29.239717583017658]}}, {"type": "Feature", "properties": {"norad_id": 40748, "name": "BEIDOU-3S M2S (C58)", "group": "gnss", "lat": 50.813889528351716, "lon": 7.40749865227453, "alt_km": 21555.23745930588, "timestamp": "2025-12-15T19:00:45.598664+00:00", "meta": {"OBJECT_NAME": "BEIDOU-3S M2S (C58)", "OBJECT_ID": "2015-037A", "EPOCH": "2025-12-11T22:15:26.437248", "MEAN_MOTION": 1.8622897, "ECCENTRICITY": 0.00123447, "INCLINATION": 55.0397, "RA_OF_ASC_NODE": 308.4912, "ARG_OF_PERICENTER": 267.8245, "MEAN_ANOMALY": 92.025, "EPHEMERIS_TYPE": 0, "CLASSIFICATION_TYPE": "U", "NORAD_CAT_ID": 40748, "ELEMENT_SET_NO": 999, "REV_AT_EPOCH": 7063, "BSTAR": 0, "MEAN_MOTION_DOT": -8.9e-07, "MEAN_MOTION_DDOT": 0}, "tle": {"line1": "1 40748U 15037A   25345.92738932 -.00000089  00000+0  00000+0 0  9997", "line2": "2 40748  55.0397 308.4912 0012344 267.8245  92.0250  1.86228970 70636"}}, "geometry": {"type": "Point", "coordinates": [7.40749865227453, 50.813889528351716]}}, {"type": "Feature", "properties": {"norad_id": 40749, "name": "BEIDOU-3S M1S (C57)", "group": "gnss", "lat": -54.416106906886924, "lon": -129.47353551573863, "alt_km": 21530.111518359718, "timestamp": "2025-12-15T19:00:45.598690+00:00", "meta": {"OBJECT_NAME": "BEIDOU-3S M1S (C57)", "OBJECT_ID": "2015-037B", "EPOCH": "2025-12-11T14:53:54.000096", "MEAN_MOTION": 1.86253918, "ECCENTRICITY": 0.00034406, "INCLINATION": 55.0364, "RA_OF_ASC_NODE": 308.4915, "ARG_OF_PERICENTER": 358.1692, "MEAN_ANOMALY": 1.8205, "EPHEMERIS_TYPE": 0, "CLASSIFICATION_TYPE": "U", "NORAD_CAT_ID": 40749, "ELEMENT_SET_NO": 999, "REV_AT_EPOCH": 7063, "BSTAR": 0, "MEAN_MOTION_DOT": -8.8e-07, "MEAN_MOTION_DDOT": 0}, "tle": {"line1": "1 40749U 15037B   25345.62076389 -.00000088  00000+0  00000+0 0  9995", "line2": "2 40749  55.0364 308.4915 0003440 358.1692   1.8205  1.86253918 70639"}}, "geometry": {"type": "Point", "coordinates": [-129.47353551573863, -54.416106906886924]}}, {"type": "Feature", "properties": {"norad_id": 40889, "name": "GSAT0205 (GALILEO 9)", "group": "gnss", "lat": 54.559591961442585, "lon": -32.86608678092981, "alt_km": 23206.011638107102, "timestamp": "2025-12-15T19:00:45.598704+00:00", "meta": {"OBJECT_NAME": "GSAT0205 (GALILEO 9)", "OBJECT_ID": "2015-045A", "EPOCH": "2025-12-13T06:56:57.536448", "MEAN_MOTION": 1.70473165, "ECCENTRICITY": 0.00060191, "INCLINATION": 55.0031, "RA_OF_ASC_NODE": 226.743, "ARG_OF_PERICENTER": 39.8542, "MEAN_ANOMALY": 320.2702, "EPHEMERIS_TYPE": 0, "CLASSIFICATION_TYPE": "U", "NORAD_CAT_ID": 40889, "ELEMENT_SET_NO": 999, "REV_AT_EPOCH": 6384, "BSTAR": 0, "MEAN_MOTION_DOT": 2.2e-07, "MEAN_MOTION_DDOT": 0}, "tle": {"line1": "1 40889U 15045A   25347.28955482  .00000022  00000+0  00000+0 0  9990", "line2": "2 40889  55.0031 226.7430 0006019  39.8542 320.2702  1.70473165 63847"}}, "geometry": {"type": "Point", "coordinates": [-32.86608678092981, 54.559591961442585]}}, {"type": "Feature", "properties": {"norad_id": 40890, "name": "GSAT0206 (GALILEO 10)", "group": "gnss", "lat": -31.41872959036359, "lon": -158.6355837179456, "alt_km": 23223.56261335415, "timestamp": "2025-12-15T19:00:45.598716+00:00", "meta": {"OBJECT_NAME": "GSAT0206 (GALILEO 10)", "OBJECT_ID": "2015-045B", "EPOCH": "2025-12-11T03:55:56.933760", "MEAN_MOTION": 1.70473071, "ECCENTRICITY": 0.00038554, "INCLINATION": 55.0029, "RA_OF_ASC_NODE": 226.7968, "ARG_OF_PERICENTER": 36.8797, "MEAN_ANOMALY": 323.2259, "EPHEMERIS_TYPE": 0, "CLASSIFICATION_TYPE": "U", "NORAD_CAT_ID": 40890, "ELEMENT_SET_NO": 999, "REV_AT_EPOCH": 6383, "BSTAR": 0, "MEAN_MOTION_DOT": 9e-08, "MEAN_MOTION_DDOT": 0}, "tle": {"line1": "1 40890U 15045B   25345.16385340  .00000009  00000+0  00000+0 0  9992", "line2": "2 40890  55.0029 226.7968 0003855  36.8797 323.2259  1.70473071 63831"}}, "geometry": {"type": "Point", "coordinates": [-158.6355837179456, -31.41872959036359]}}]}